NORAD_CAT_ID,OBJECT_NAME,OBJECT_TYPE,EPOCH,MEAN_MOTION,ECCENTRICITY,INCLINATION,RA_OF_ASC_NODE,ARG_OF_PERICENTER,MEAN_ANOMALY,BSTAR,MEAN_MOTION_DOT,MEAN_MOTION_DDOT,TLE_LINE0,TLE_LINE1,TLE_LINE2,SEMIMAJOR_AXIS,PERIOD,APOGEE,PERIGEE,DECAYED
53922.0,STARLINK-5002,PAYLOAD,2024-05-09 05:39:42,15.0885176,0.0001436,53.2174,79.1643,93.1269,266.9888,0.00045364,6.941e-05,0.0,0 STARLINK-5002,1 53922U 22119AN  24130.23590995  .00006941  00000-0  45364-3 0  9993,2 53922  53.2174  79.1643 0001436  93.1269 266.9888 15.08851760 90769,6917.844,95.437,540.703,538.716,0.0
53922.0,STARLINK-5002,PAYLOAD,2024-05-10 03:55:06,15.0885478,0.000138,53.2173,75.0007,89.9732,270.1418,0.00051372,7.901e-05,0.0,0 STARLINK-5002,1 53922U 22119AN  24131.16327182  .00007901  00000-0  51372-3 0  9995,2 53922  53.2173  75.0007 0001380  89.9732 270.1418 15.08854780 90483,6917.835,95.437,540.655,538.746,0.0
53922.0,STARLINK-5002,PAYLOAD,2024-05-10 13:27:25,15.08844065,0.0001317,53.2165,73.2159,102.203,257.911,0.00027672,4.119e-05,0.0,0 STARLINK-5002,1 53922U 22119AN  24131.56071224  .00004119  00000-0  27672-3 0  9996,2 53922  53.2165  73.2159 0001317 102.2030 257.9110 15.08844065 90962,6917.868,95.437,540.644,538.822,0.0
53922.0,STARLINK-5002,PAYLOAD,2024-05-11 02:10:30,15.08857351,0.0001916,53.2169,70.8367,103.3046,256.816,0.0010609,0.00016645,0.0,0 STARLINK-5002,1 53922U 22119AN  24132.09063216  .00016645  00000-0  10609-2 0  9995,2 53922  53.2169  70.8367 0001916 103.3046 256.8160 15.08857351 90622,6917.827,95.436,541.018,538.367,0.0
53922.0,STARLINK-5002,PAYLOAD,2024-05-11 19:39:41,15.08924807,0.0002461,53.2172,67.5688,99.6299,260.4972,0.0016701,0.00026454,0.0,0 STARLINK-5002,1 53922U 22119AN  24132.81923492  .00026454  00000-0  16701-2 0  9994,2 53922  53.2172  67.5688 0002461  99.6299 260.4972 15.08924807 90733,6917.621,95.432,541.189,537.784,0.0
53922.0,STARLINK-5002,PAYLOAD,2024-05-12 02:01:16,15.08742975,0.0001359,53.218,66.3781,83.7683,276.3464,-0.0068817,-0.00107886,0.0,0 STARLINK-5002,1 53922U 22119AN  24133.08422396 -.00107886  00000-0 -68817-2 0  9997,2 53922  53.2180  66.3781 0001359  83.7683 276.3464 15.08742975 90779,6918.177,95.444,540.982,539.102,0.0
53922.0,STARLINK-5002,PAYLOAD,2024-05-12 05:12:04,15.08716994,9.79e-05,53.2176,65.7841,72.4953,287.6146,-0.0051743,-0.0008143,0.0,0 STARLINK-5002,1 53922U 22119AN  24133.21671661 -.00081430  00000-0 -51743-2 0  9999,2 53922  53.2176  65.7841 0000979  72.4953 287.6146 15.08716994 91210,6918.256,95.445,540.799,539.444,0.0
53922.0,STARLINK-5002,PAYLOAD,2024-05-12 22:41:21,15.08807915,0.000105,53.218,62.5118,79.5595,280.5516,0.0024541,0.00038951,0.0,0 STARLINK-5002,1 53922U 22119AN  24133.94538695  .00038951  00000-0  24541-2 0  9992,2 53922  53.2180  62.5118 0001050  79.5595 280.5516 15.08807915 91327,6917.978,95.44,540.57,539.117,0.0
53922.0,STARLINK-5002,PAYLOAD,2024-05-13 05:02:53,15.08861865,0.0001479,53.217,61.325,119.6013,240.5127,0.0036133,0.00057723,0.0,0 STARLINK-5002,1 53922U 22119AN  24134.21034283  .00057723  00000-0  36133-2 0  9995,2 53922  53.2170  61.3250 0001479 119.6013 240.5127 15.08861865 90941,6917.814,95.436,540.702,538.655,0.0
53922.0,STARLINK-5002,PAYLOAD,2024-05-14 01:42:52,15.08897649,0.000151,53.2187,57.4569,120.6457,239.4684,0.001751,0.00027733,0.0,0 STARLINK-5002,1 53922U 22119AN  24135.07144253  .00027733  00000-0  17510-2 0  9995,2 53922  53.2187  57.4569 0001510 120.6457 239.4684 15.08897649 91077,6917.704,95.434,540.614,538.525,0.0
53922.0,STARLINK-5002,PAYLOAD,2024-05-14 11:15:10,15.08880253,0.0001584,53.2177,55.6723,72.3334,287.7831,0.0017656,0.00027954,0.0,0 STARLINK-5002,1 53922U 22119AN  24135.46887694  .00027954  00000-0  17656-2 0  9997,2 53922  53.2177  55.6723 0001584  72.3334 287.7831 15.08880253 91136,6917.757,95.435,540.718,538.527,0.0
53922.0,STARLINK-5002,PAYLOAD,2024-05-14 22:22:52,15.08851839,0.0001239,53.2181,53.5917,97.9449,262.1684,0.0010622,0.00016663,0.0,0 STARLINK-5002,1 53922U 22119AN  24135.93255654  .00016663  00000-0  10622-2 0  9995,2 53922  53.2181  53.5917 0001239  97.9449 262.1684 15.08851839 91625,6917.844,95.437,540.566,538.852,0.0
53922.0,STARLINK-5002,PAYLOAD,2024-05-15 01:33:38,15.08863308,0.0001312,53.218,52.9986,105.4237,254.69,0.002163,0.00034326,0.0,0 STARLINK-5002,1 53922U 22119AN  24136.06503468  .00034326  00000-0  21630-2 0  9996,2 53922  53.2180  52.9986 0001312 105.4237 254.6900 15.08863308 91222,6917.809,95.436,540.582,538.767,0.0
53922.0,STARLINK-5002,PAYLOAD,2024-05-15 22:13:40,15.08853265,0.0001289,53.218,49.1294,104.9073,255.2061,0.0017175,0.00027162,0.0,0 STARLINK-5002,1 53922U 22119AN  24136.92616009  .00027162  00000-0  17175-2 0  9996,2 53922  53.2180  49.1294 0001289 104.9073 255.2061 15.08853265 91773,6917.84,95.437,540.597,538.813,0.0
53922.0,STARLINK-5002,PAYLOAD,2024-05-16 01:24:26,15.08844105,0.0001291,53.219,48.5394,91.6215,268.4925,0.00094869,0.00014844,0.0,0 STARLINK-5002,1 53922U 22119AN  24137.05864079  .00014844  00000-0  94869-3 0  9992,2 53922  53.2190  48.5394 0001291  91.6215 268.4925 15.08844105 91375,6917.868,95.437,540.626,538.84,0.0
53922.0,STARLINK-5002,PAYLOAD,2024-05-16 10:56:45,15.08847792,0.0001191,53.2181,46.7533,74.1134,285.9989,0.00062456,9.668e-05,0.0,0 STARLINK-5002,1 53922U 22119AN  24137.45607986  .00009668  00000-0  62456-3 0  9993,2 53922  53.2181  46.7533 0001191  74.1134 285.9989 15.08847792 91857,6917.857,95.437,540.545,538.898,0.0
53922.0,STARLINK-5002,PAYLOAD,2024-05-16 17:18:17,15.08848248,0.0001315,53.2189,45.5655,77.6795,282.4344,0.00038841,5.9e-05,0.0,0 STARLINK-5002,1 53922U 22119AN  24137.72103939  .00005900  00000-0  38841-3 0  9998,2 53922  53.2189  45.5655 0001315  77.6795 282.4344 15.08848248 91478,6917.855,95.437,540.63,538.81,0.0
53922.0,STARLINK-5002,PAYLOAD,2024-05-17 10:47:32,15.08837092,0.0001173,53.2174,42.2914,89.6951,270.4176,0.00025644,3.795e-05,0.0,0 STARLINK-5002,1 53922U 22119AN  24138.44967814  .00003795  00000-0  25644-3 0  9995,2 53922  53.2174  42.2914 0001173  89.6951 270.4176 15.08837092 91580,6917.889,95.438,540.566,538.943,0.0
53922.0,STARLINK-5002,PAYLOAD,2024-05-17 21:55:15,15.0881972,0.0001452,53.2186,40.2131,86.7915,273.3243,-0.00038324,-6.379e-05,0.0,0 STARLINK-5002,1 53922U 22119AN  24138.91336824 -.00006379  00000-0 -38324-3 0  9990,2 53922  53.2186  40.2131 0001452  86.7915 273.3243 15.08819720 92070,6917.942,95.439,540.812,538.803,0.0
53922.0,STARLINK-5002,PAYLOAD,2024-05-18 10:38:19,15.08845633,0.0001396,53.2177,37.831,89.1283,270.9869,0.00024156,3.559e-05,0.0,0 STARLINK-5002,1 53922U 22119AN  24139.44328307  .00003559  00000-0  24156-3 0  9999,2 53922  53.2177  37.8310 0001396  89.1283 270.9869 15.08845633 92151,6917.863,95.437,540.694,538.762,0.0
53922.0,STARLINK-5002,PAYLOAD,2024-05-18 23:21:24,15.08845643,0.0001674,53.219,35.4529,86.6074,273.5109,0.0002457,3.625e-05,0.0,0 STARLINK-5002,1 53922U 22119AN  24139.97320358  .00003625  00000-0  24570-3 0  9999,2 53922  53.2190  35.4529 0001674  86.6074 273.5109 15.08845643 92237,6917.863,95.437,540.886,538.57,0.0
53922.0,STARLINK-5002,PAYLOAD,2024-05-19 02:32:11,15.08830386,0.0001174,53.2187,34.8575,88.6137,271.499,-8.9668e-05,-1.714e-05,0.0,0 STARLINK-5002,1 53922U 22119AN  24140.10568834 -.00001714  00000-0 -89668-4 0  9998,2 53922  53.2187  34.8575 0001174  88.6137 271.4990 15.08830386 91832,6917.91,95.438,540.587,538.963,0.0
53922.0,STARLINK-5002,PAYLOAD,2024-05-19 20:01:27,15.08818378,0.0001262,53.2199,31.5896,82.3758,277.7377,-7.9503e-05,-1.552e-05,0.0,0 STARLINK-5002,1 53922U 22119AN  24140.83434218 -.00001552  00000-0 -79503-4 0  9993,2 53922  53.2199  31.5896 0001262  82.3758 277.7377 15.08818378 91940,6917.946,95.439,540.685,538.938,0.0
53922.0,STARLINK-5002,PAYLOAD,2024-05-19 23:12:13,15.0883378,0.0001471,53.2193,30.9904,91.6013,268.5148,-2.348e-05,-6.62e-06,0.0,0 STARLINK-5002,1 53922U 22119AN  24140.96682055 -.00000662  00000-0 -23480-4 0  9995,2 53922  53.2193  30.9904 0001471  91.6013 268.5148 15.08833780 91966,6917.899,95.438,540.782,538.747,0.0
53922.0,STARLINK-5002,PAYLOAD,2024-05-20 21:27:34,15.08884843,0.0001266,53.2196,26.8269,92.7162,267.3975,-0.0004107,-6.826e-05,0.0,0 STARLINK-5002,1 53922U 22119AN  24141.89414778 -.00006826  00000-0 -41070-3 0  9995,2 53922  53.2196  26.8269 0001266  92.7162 267.3975 15.08884843 92104,6917.743,95.435,540.484,538.733,0.0
53922.0,STARLINK-5002,PAYLOAD,2024-05-20 23:02:59,15.08847653,0.000134,53.2191,26.5307,98.2787,261.8357,0.00045834,7.016e-05,0.0,0 STARLINK-5002,1 53922U 22119AN  24141.96041122  .00007016  00000-0  45834-3 0  9994,2 53922  53.2191  26.5307 0001340  98.2787 261.8357 15.08847653 92118,6917.857,95.437,540.649,538.795,0.0
53922.0,STARLINK-5002,PAYLOAD,2024-05-21 21:18:23,15.08847313,0.000158,53.2193,22.3715,125.5789,234.535,0.00010952,1.456e-05,0.0,0 STARLINK-5002,1 53922U 22119AN  24142.88776943  .00001456  00000-0  10952-3 0  9997,2 53922  53.2193  22.3715 0001580 125.5789 234.5350 15.08847313 92257,6917.858,95.437,540.816,538.63,0.0
53922.0,STARLINK-5002,PAYLOAD,2024-05-22 02:04:32,15.08848017,0.0001542,53.2188,21.475,119.434,240.6806,0.00010057,1.313e-05,0.0,0 STARLINK-5002,1 53922U 22119AN  24143.08648706  .00001313  00000-0  10057-3 0  9993,2 53922  53.2188  21.4750 0001542 119.4340 240.6806 15.08848017 92709,6917.856,95.437,540.788,538.654,0.0
53922.0,STARLINK-5002,PAYLOAD,2024-05-22 21:09:10,15.08844479,0.0001184,53.218,17.9021,92.1912,267.9216,-0.00010398,-1.942e-05,0.0,0 STARLINK-5002,1 53922U 22119AN  24143.88136756 -.00001942  00000-0 -10398-3 0  9996,2 53922  53.2180  17.9021 0001184  92.1912 267.9216 15.08844479 92408,6917.867,95.437,540.551,538.913,0.0
53922.0,STARLINK-5002,PAYLOAD,2024-05-23 00:19:56,15.08846788,0.0001473,53.2192,17.3122,78.8532,281.2626,-3.6227e-05,-8.65e-06,0.0,0 STARLINK-5002,1 53922U 22119AN  24144.01384765 -.00000865  00000-0 -36227-4 0  9990,2 53922  53.2192  17.3122 0001473  78.8532 281.2626 15.08846788 92844,6917.86,95.437,540.744,538.706,0.0
